[{"OBJECT_NAME":"SCS-01 M","OBJECT_ID":"2025-100M","EPOCH":"2026-03-09T23:50:15.541152","MEAN_MOTION":15.31880861,"ECCENTRICITY":0.00078021,"INCLINATION":97.3725,"RA_OF_ASC_NODE":145.6908,"ARG_OF_PERICENTER":292.3826,"MEAN_ANOMALY":67.6588,"EPHEMERIS_TYPE":0,"CLASSIFICATION_TYPE":"U","NORAD_CAT_ID":63993,"ELEMENT_SET_NO":999,"REV_AT_EPOCH":4565,"BSTAR":0.0012010051,"MEAN_MOTION_DOT":0.00037061,"MEAN_MOTION_DDOT":0},{"OBJECT_NAME":"STARLINK-36075","OBJECT_ID":"2025-283AD","EPOCH":"2026-03-09T06:18:34.925472","MEAN_MOTION":15.30145175,"ECCENTRICITY":0.00011567,"INCLINATION":53.1623,"RA_OF_ASC_NODE":26.5141,"ARG_OF_PERICENTER":128.6218,"MEAN_ANOMALY":231.4886,"EPHEMERIS_TYPE":0,"CLASSIFICATION_TYPE":"U","NORAD_CAT_ID":66905,"ELEMENT_SET_NO":999,"REV_AT_EPOCH":1577,"BSTAR":0.00033324812,"MEAN_MOTION_DOT":9.507e-5,"MEAN_MOTION_DDOT":0}]
